ONEWEB-0716             
1 55177U 23004AP  24271.58462878  .00000007  00000+0 -16136-4 0  9996
2 55177  87.9116 130.9052 0001548  85.2118 274.9190 13.17759412 84938
ONEWEB-0717             
1 55178U 23004AQ  24271.87144798  .00000048  00000+0  89930-4 0  9993
2 55178  87.9111 130.8111 0001816  49.9033 310.2257 13.17625538 85020
ONEWEB-0719             
1 55179U 23004AR  24271.57786895 -.00000352  00000+0 -93685-3 0  9992
2 55179  87.9112 130.8548 0001466  84.0609 276.0689 13.17800904 84935
ONEWEB-0530             
1 55796U 23029A   24271.59695283  .00000120  00000+0  26374-3 0  9998
2 55796  87.9260  39.3090 0001285  87.5928 272.5353 13.20769550 79017
ONEWEB-0534             
1 55797U 23029B   24271.35706744  .00000152  00000+0  34081-3 0  9997
2 55797  87.9261  39.3639 0001788 103.9548 256.1785 13.20770293 78277
ONEWEB-0556             
1 55798U 23029C   24271.81793257 -.00000075  00000+0 -21585-3 0  9995
2 55798  87.9263  39.2654 0001098 123.1195 237.0044 13.20771460 78332
ONEWEB-0562             
1 55799U 23029D   24271.80528483 -.00000281  00000+0 -72271-3 0  9999
2 55799  87.9262  39.2591 0000682  90.1570 269.9642 13.20771250 78335
ONEWEB-0563             
1 55800U 23029E   24271.64746847  .00000101  00000+0  21739-3 0  9992
2 55800  87.9260  39.3053 0001949 110.7412 249.3930 13.20770414 78301
